CCSDS_OMM_VERS = 2.0
CREATION_DATE  = 
ORIGINATOR     = 

OBJECT_NAME    = SL-14 R/B
OBJECT_ID      = 1991-042B
CENTER_NAME    = EARTH
REF_FRAME      = TEME
TIME_SYSTEM    = UTC
MEAN_ELEMENT_THEORY = SGP/SGP4

EPOCH          = 2026-02-17T23:20:28.337280
MEAN_MOTION    = 14.81808765
ECCENTRICITY   = .0015851
INCLINATION    = 82.4897
RA_OF_ASC_NODE = 238.6750
ARG_OF_PERICENTER = 309.2869
MEAN_ANOMALY   = 50.6938

EPHEMERIS_TYPE = 0
CLASSIFICATION_TYPE = U
NORAD_CAT_ID   = 21423
ELEMENT_SET_NO = 999
REV_AT_EPOCH   = 85015
BSTAR          = .44697E-4
MEAN_MOTION_DOT = .377E-5
MEAN_MOTION_DDOT = 0

CCSDS_OMM_VERS = 2.0
CREATION_DATE  = 
ORIGINATOR     = 

OBJECT_NAME    = ERS-1
OBJECT_ID      = 1991-050A
CENTER_NAME    = EARTH
REF_FRAME      = TEME
TIME_SYSTEM    = UTC
MEAN_ELEMENT_THEORY = SGP/SGP4

EPOCH          = 2026-02-18T00:36:53.095392
MEAN_MOTION    = 14.39432975
ECCENTRICITY   = .00308898
INCLINATION    = 98.7893
RA_OF_ASC_NODE = 66.7655
ARG_OF_PERICENTER = 260.2802
MEAN_ANOMALY   = 99.4896

EPHEMERIS_TYPE = 0
CLASSIFICATION_TYPE = U
NORAD_CAT_ID   = 21574
ELEMENT_SET_NO = 999
REV_AT_EPOCH   = 81290
BSTAR          = .10922321E-3
MEAN_MOTION_DOT = .295E-5
MEAN_MOTION_DDOT = 0

CCSDS_OMM_VERS = 2.0
CREATION_DATE  = 
ORIGINATOR     = 

OBJECT_NAME    = ARIANE 40 R/B
OBJECT_ID      = 1991-050F
CENTER_NAME    = EARTH
REF_FRAME      = TEME
TIME_SYSTEM    = UTC
MEAN_ELEMENT_THEORY = SGP/SGP4

EPOCH          = 2026-02-18T02:57:35.826912
MEAN_MOTION    = 14.42878568
ECCENTRICITY   = .00041838
INCLINATION    = 98.2056
RA_OF_ASC_NODE = 102.0901
ARG_OF_PERICENTER = 123.8572
MEAN_ANOMALY   = 236.3018

EPHEMERIS_TYPE = 0
CLASSIFICATION_TYPE = U
NORAD_CAT_ID   = 21610
ELEMENT_SET_NO = 999
REV_AT_EPOCH   = 81617
BSTAR          = .9389896E-4
MEAN_MOTION_DOT = .272E-5
MEAN_MOTION_DDOT = 0

CCSDS_OMM_VERS = 2.0
CREATION_DATE  = 
ORIGINATOR     = 

OBJECT_NAME    = INTERCOSMOS 25
OBJECT_ID      = 1991-086A
CENTER_NAME    = EARTH
REF_FRAME      = TEME
TIME_SYSTEM    = UTC
MEAN_ELEMENT_THEORY = SGP/SGP4

EPOCH          = 2026-02-18T06:08:50.505504
MEAN_MOTION    = 12.11944023
ECCENTRICITY   = .1487001
INCLINATION    = 82.6084
RA_OF_ASC_NODE = 321.7515
ARG_OF_PERICENTER = 158.7958
MEAN_ANOMALY   = 208.2051

EPHEMERIS_TYPE = 0
CLASSIFICATION_TYPE = U
NORAD_CAT_ID   = 21819
ELEMENT_SET_NO = 999
REV_AT_EPOCH   = 49433
BSTAR          = .17933412E-3
MEAN_MOTION_DOT = .941E-5
MEAN_MOTION_DDOT = 0

CCSDS_OMM_VERS = 2.0
CREATION_DATE  = 
ORIGINATOR     = 

OBJECT_NAME    = SL-8 R/B
OBJECT_ID      = 1992-008B
CENTER_NAME    = EARTH
REF_FRAME      = TEME
TIME_SYSTEM    = UTC
MEAN_ELEMENT_THEORY = SGP/SGP4

EPOCH          = 2026-02-18T04:08:16.022688
MEAN_MOTION    = 13.75970129
ECCENTRICITY   = .00344205
INCLINATION    = 82.9249
RA_OF_ASC_NODE = 282.2992
ARG_OF_PERICENTER = 187.1147
MEAN_ANOMALY   = 290.8295

EPHEMERIS_TYPE = 0
CLASSIFICATION_TYPE = U
NORAD_CAT_ID   = 21876
ELEMENT_SET_NO = 999
REV_AT_EPOCH   = 70673
BSTAR          = .44583524E-4
MEAN_MOTION_DOT = .59E-6
MEAN_MOTION_DDOT = 0

CCSDS_OMM_VERS = 2.0
CREATION_DATE  = 
ORIGINATOR     = 

OBJECT_NAME    = SL-8 R/B
OBJECT_ID      = 1992-020B
CENTER_NAME    = EARTH
REF_FRAME      = TEME
TIME_SYSTEM    = UTC
MEAN_ELEMENT_THEORY = SGP/SGP4

EPOCH          = 2026-02-18T06:15:35.001792
MEAN_MOTION    = 13.75546844
ECCENTRICITY   = .00286337
INCLINATION    = 82.9339
RA_OF_ASC_NODE = 168.1819
ARG_OF_PERICENTER = 354.6879
MEAN_ANOMALY   = 16.9044

EPHEMERIS_TYPE = 0
CLASSIFICATION_TYPE = U
NORAD_CAT_ID   = 21938
ELEMENT_SET_NO = 999
REV_AT_EPOCH   = 69846
BSTAR          = .81158484E-4
MEAN_MOTION_DOT = .93E-6
MEAN_MOTION_DDOT = 0

CCSDS_OMM_VERS = 2.0
CREATION_DATE  = 
ORIGINATOR     = 

OBJECT_NAME    = USA 81
OBJECT_ID      = 1992-023A
CENTER_NAME    = EARTH
REF_FRAME      = TEME
TIME_SYSTEM    = UTC
MEAN_ELEMENT_THEORY = SGP/SGP4

EPOCH          = 2026-02-18T05:43:09.865632
MEAN_MOTION    = 14.32360777
ECCENTRICITY   = .00027386
INCLINATION    = 85.0116
RA_OF_ASC_NODE = 142.6583
ARG_OF_PERICENTER = 95.2444
MEAN_ANOMALY   = 264.9061

EPHEMERIS_TYPE = 0
CLASSIFICATION_TYPE = U
NORAD_CAT_ID   = 21949
ELEMENT_SET_NO = 999
REV_AT_EPOCH   = 9200
BSTAR          = .65801154E-4
MEAN_MOTION_DOT = .198E-5
MEAN_MOTION_DDOT = 0

CCSDS_OMM_VERS = 2.0
CREATION_DATE  = 
ORIGINATOR     = 

OBJECT_NAME    = COSMOS 2219
OBJECT_ID      = 1992-076A
CENTER_NAME    = EARTH
REF_FRAME      = TEME
TIME_SYSTEM    = UTC
MEAN_ELEMENT_THEORY = SGP/SGP4

EPOCH          = 2026-02-18T05:01:35.111424
MEAN_MOTION    = 14.14079045
ECCENTRICITY   = .00199124
INCLINATION    = 71.0585
RA_OF_ASC_NODE = 58.7921
ARG_OF_PERICENTER = 233.2553
MEAN_ANOMALY   = 126.6742

EPHEMERIS_TYPE = 0
CLASSIFICATION_TYPE = U
NORAD_CAT_ID   = 22219
ELEMENT_SET_NO = 999
REV_AT_EPOCH   = 71562
BSTAR          = .14591997E-3
MEAN_MOTION_DOT = .231E-5
MEAN_MOTION_DDOT = 0

CCSDS_OMM_VERS = 2.0
CREATION_DATE  = 
ORIGINATOR     = 

OBJECT_NAME    = SL-16 R/B
OBJECT_ID      = 1992-076B
CENTER_NAME    = EARTH
REF_FRAME      = TEME
TIME_SYSTEM    = UTC
MEAN_ELEMENT_THEORY = SGP/SGP4

EPOCH          = 2026-02-17T19:03:06.028128
MEAN_MOTION    = 14.16854811
ECCENTRICITY   = .0011146
INCLINATION    = 70.9976
RA_OF_ASC_NODE = 230.2830
ARG_OF_PERICENTER = 132.9142
MEAN_ANOMALY   = 320.8267

EPHEMERIS_TYPE = 0
CLASSIFICATION_TYPE = U
NORAD_CAT_ID   = 22220
ELEMENT_SET_NO = 999
REV_AT_EPOCH   = 71901
BSTAR          = -.51414E-4
MEAN_MOTION_DOT = -.151E-5
MEAN_MOTION_DDOT = 0

CCSDS_OMM_VERS = 2.0
CREATION_DATE  = 
ORIGINATOR     = 

OBJECT_NAME    = COSMOS 2221
OBJECT_ID      = 1992-080A
CENTER_NAME    = EARTH
REF_FRAME      = TEME
TIME_SYSTEM    = UTC
MEAN_ELEMENT_THEORY = SGP/SGP4

EPOCH          = 2026-02-18T04:12:33.953472
MEAN_MOTION    = 14.96122520
ECCENTRICITY   = .00128168
INCLINATION    = 82.5042
RA_OF_ASC_NODE = 297.7723
ARG_OF_PERICENTER = 258.1083
MEAN_ANOMALY   = 101.8702

EPHEMERIS_TYPE = 0
CLASSIFICATION_TYPE = U
NORAD_CAT_ID   = 22236
ELEMENT_SET_NO = 999
REV_AT_EPOCH   = 77787
BSTAR          = .15983666E-3
MEAN_MOTION_DOT = .1826E-4
MEAN_MOTION_DDOT = 0

CCSDS_OMM_VERS = 2.0
CREATION_DATE  = 
ORIGINATOR     = 

OBJECT_NAME    = SL-16 R/B
OBJECT_ID      = 1992-093B
CENTER_NAME    = EARTH
REF_FRAME      = TEME
TIME_SYSTEM    = UTC
MEAN_ELEMENT_THEORY = SGP/SGP4

EPOCH          = 2026-02-18T05:37:45.092352
MEAN_MOTION    = 14.15444743
ECCENTRICITY   = .00055205
INCLINATION    = 71.0211
RA_OF_ASC_NODE = 45.1071
ARG_OF_PERICENTER = 314.6340
MEAN_ANOMALY   = 45.4332

EPHEMERIS_TYPE = 0
CLASSIFICATION_TYPE = U
NORAD_CAT_ID   = 22285
ELEMENT_SET_NO = 999
REV_AT_EPOCH   = 71040
BSTAR          = .18266526E-3
MEAN_MOTION_DOT = .309E-5
MEAN_MOTION_DDOT = 0

CCSDS_OMM_VERS = 2.0
CREATION_DATE  = 
ORIGINATOR     = 

OBJECT_NAME    = COSMOS 2228
OBJECT_ID      = 1992-094A
CENTER_NAME    = EARTH
REF_FRAME      = TEME
TIME_SYSTEM    = UTC
MEAN_ELEMENT_THEORY = SGP/SGP4

EPOCH          = 2026-02-18T04:54:32.824512
MEAN_MOTION    = 14.97093638
ECCENTRICITY   = .00183491
INCLINATION    = 82.5147
RA_OF_ASC_NODE = 255.9702
ARG_OF_PERICENTER = 12.1194
MEAN_ANOMALY   = 348.0466

EPHEMERIS_TYPE = 0
CLASSIFICATION_TYPE = U
NORAD_CAT_ID   = 22286
ELEMENT_SET_NO = 999
REV_AT_EPOCH   = 77314
BSTAR          = .1599181E-3
MEAN_MOTION_DOT = .1876E-4
MEAN_MOTION_DDOT = 0

