SL-14 R/B               
1 21423U 91042B   26048.97255020  .00000377  00000+0  44697-4 0  9998
2 21423  82.4897 238.6750 0015851 309.2869  50.6938 14.81808765850158
ERS-1                   
1 21574U 91050A   26049.02561453  .00000295  00000+0  10922-3 0  9993
2 21574  98.7893  66.7655 0030889 260.2802  99.4896 14.39432975812900
ARIANE 40 R/B           
1 21610U 91050F   26049.12333133  .00000272  00000+0  93899-4 0  9997
2 21610  98.2056 102.0901 0004183 123.8572 236.3018 14.42878568816178
INTERCOSMOS 25          
1 21819U 91086A   26049.25614011  .00000941  00000+0  17933-3 0  9995
2 21819  82.6084 321.7515 1487001 158.7958 208.2051 12.11944023494337
SL-8 R/B                
1 21876U 92008B   26049.17240767  .00000059  00000+0  44584-4 0  9990
2 21876  82.9249 282.2992 0034420 187.1147 290.8295 13.75970129706738
SL-8 R/B                
1 21938U 92020B   26049.26082178  .00000093  00000+0  81158-4 0  9999
2 21938  82.9339 168.1819 0028633 354.6879  16.9044 13.75546844698461
USA 81                  
1 21949U 92023A   26049.23830863  .00000198  00000+0  65801-4 0  9996
2 21949  85.0116 142.6583 0002738  95.2444 264.9061 14.32360777 92004
COSMOS 2219             
1 22219U 92076A   26049.20943416  .00000231  00000+0  14592-3 0  9999
2 22219  71.0585  58.7921 0019912 233.2553 126.6742 14.14079045715625
SL-16 R/B               
1 22220U 92076B   26048.79381977 -.00000151  00000+0 -51414-4 0  9990
2 22220  70.9976 230.2830 0011146 132.9142 320.8267 14.16854811719016
COSMOS 2221             
1 22236U 92080A   26049.17539298  .00001826  00000+0  15984-3 0  9995
2 22236  82.5042 297.7723 0012816 258.1083 101.8702 14.96122520777877
SL-16 R/B               
1 22285U 92093B   26049.23454968  .00000309  00000+0  18267-3 0  9992
2 22285  71.0211  45.1071 0005520 314.6340  45.4332 14.15444743710404
COSMOS 2228             
1 22286U 92094A   26049.20454658  .00001876  00000+0  15992-3 0  9999
2 22286  82.5147 255.9702 0018349  12.1194 348.0466 14.97093638773145
